ORBCOMM FM06            
1 25118U 97084G   26164.06172309  .00001150  00000+0  34863-3 0  9995
2 25118  45.0142  72.5721 0001539 318.6233  56.4827 14.47553366493791
ORBCOMM FM04            
1 25159U 98007C   26164.21401872  .00000803  00000+0  32023-3 0  9993
2 25159 107.9627 161.2419 0041213 331.6061  28.2835 14.35734627476020
ORBCOMM FM19            
1 25415U 98046C   26164.00777884  .00000689  00000+0  26446-3 0  9991
2 25415  44.9938 263.4282 0004492 264.7630 264.8592 14.39489532456177
ORBCOMM FM20            
1 25416U 98046D   26163.98366676  .00000543  00000+0  22434-3 0  9993
2 25416  44.9943 271.4189 0002054 236.4114 123.6538 14.38061574456188
ORBCOMM FM27            
1 25481U 98053G   26164.23066444  .00000836  00000+0  31342-3 0  9995
2 25481  45.0064 354.1460 0000617 175.1313 184.9542 14.39134590449660
ORBCOMM FM32            
1 25982U 99065C   26163.77189292  .00000465  00000+0  20231-3 0  9993
2 25982  45.0137 194.1394 0004750  11.6385 348.4572 14.37125748386450
ORBCOMM FM109           
1 40086U 14040A   26162.13987668  .00000338  00000+0  10777-3 0  9990
2 40086  47.0025 120.0774 0001750 230.5593 129.5138 14.58838155633468
ORBCOMM FM114           
1 41179U 15081A   26164.28024829  .00000433  00000+0  12794-3 0  9996
2 41179  47.0060  20.4759 0002252 192.2086 167.8745 14.58854678557187
ORBCOMM FM110           
1 41182U 15081D   26163.99475645  .00000662  00000+0  17629-3 0  9999
2 41182  47.0031  21.2657 0002644  50.6863 309.4257 14.58874646557011
ORBCOMM FM118           
1 41183U 15081E   26163.89202560  .00002535  00000+0  57212-3 0  9996
2 41183  47.0079  22.0820 0002929  12.9133 347.1827 14.58879544557106
ORBCOMM FM112           
1 41184U 15081F   26164.03364351  .00000577  00000+0  15825-3 0  9999
2 41184  46.9999 289.8885 0003482 200.1139 159.9611 14.58898569558347
ORBCOMM FM113           
1 41185U 15081G   26163.05131900  .00000335  00000+0  10705-3 0  9997
2 41185  47.0017 294.9070 0001998 204.7602 155.3188 14.58853293558185
ORBCOMM FM108           
1 41187U 15081J   26163.83559393  .00000379  00000+0  11637-3 0  9998
2 41187  47.0056 202.7729 0002702 207.0496 153.0250 14.58866418559447
ORBCOMM FM117           
1 41188U 15081K   26163.80109453  .00000357  00000+0  11174-3 0  9996
2 41188  46.9997 201.5700 0003263 206.9100 153.1617 14.58862442559484
ORBCOMM FM116           
1 41189U 15081L   26164.05553766  .00000590  00000+0  16100-3 0  9998
2 41189  47.0032 290.1575 0000773  31.8666 328.2267 14.58877372558333
